[{"OBJECT_NAME":"STARLINK-4591","OBJECT_ID":"2022-104V","EPOCH":"2026-03-09T18:02:08.977920","MEAN_MOTION":15.08841572,"ECCENTRICITY":0.00014094,"INCLINATION":53.2164,"RA_OF_ASC_NODE":238.8956,"ARG_OF_PERICENTER":93.6563,"MEAN_ANOMALY":266.459,"EPHEMERIS_TYPE":0,"CLASSIFICATION_TYPE":"U","NORAD_CAT_ID":53607,"ELEMENT_SET_NO":999,"REV_AT_EPOCH":19569,"BSTAR":-1.512017e-5,"MEAN_MOTION_DOT":-5.29e-6,"MEAN_MOTION_DDOT":0},{"OBJECT_NAME":"COSMOS 886 DEB","OBJECT_ID":"1976-126BY","EPOCH":"2026-03-09T15:12:54.874944","MEAN_MOTION":13.31069333,"ECCENTRICITY":0.0856265,"INCLINATION":65.8136,"RA_OF_ASC_NODE":247.1366,"ARG_OF_PERICENTER":73.8679,"MEAN_ANOMALY":295.4822,"EPHEMERIS_TYPE":0,"CLASSIFICATION_TYPE":"U","NORAD_CAT_ID":18907,"ELEMENT_SET_NO":999,"REV_AT_EPOCH":83453,"BSTAR":0.00052411479,"MEAN_MOTION_DOT":2.066e-5,"MEAN_MOTION_DDOT":0}]
